[{"OBJECT_NAME":"STARLINK-31579","OBJECT_ID":"2024-050P","EPOCH":"2026-03-09T14:23:57.314688","MEAN_MOTION":15.30195118,"ECCENTRICITY":0.0001119,"INCLINATION":53.1605,"RA_OF_ASC_NODE":181.4925,"ARG_OF_PERICENTER":76.2634,"MEAN_ANOMALY":283.8492,"EPHEMERIS_TYPE":0,"CLASSIFICATION_TYPE":"U","NORAD_CAT_ID":59267,"ELEMENT_SET_NO":999,"REV_AT_EPOCH":11053,"BSTAR":-4.9165e-6,"MEAN_MOTION_DOT":-5.05e-6,"MEAN_MOTION_DDOT":0},{"OBJECT_NAME":"TEVEL2-4","OBJECT_ID":"2025-052D","EPOCH":"2026-03-09T16:39:37.129536","MEAN_MOTION":15.30925813,"ECCENTRICITY":0.0004733,"INCLINATION":97.4009,"RA_OF_ASC_NODE":325.1237,"ARG_OF_PERICENTER":95.3468,"MEAN_ANOMALY":264.8313,"EPHEMERIS_TYPE":0,"CLASSIFICATION_TYPE":"U","NORAD_CAT_ID":63213,"ELEMENT_SET_NO":999,"REV_AT_EPOCH":5487,"BSTAR":0.00070362503,"MEAN_MOTION_DOT":0.0002099,"MEAN_MOTION_DDOT":0}]
